GOES-16
1 41866U 16071A   25170.22879038 -.00000079  00000-0  00000+0 0  9990
2 41866   0.0562 248.5281 0000843 247.1744 109.6333  1.00269705 31463
FENGYUN-4A
1 41882U 16077A   25169.81388153 -.00000346  00000-0  00000-0 0  9998
2 41882   1.3950  84.2709 0007104 167.2602  72.5485  1.00271190 31285
FOX-1B (AO-91)
1 43017U 17073E   25169.90292738  .00007116  00000-0  36217-3 0  9993
2 43017  97.5258  40.4394 0173662 134.4369 227.1218 15.04862571410616
CANX-2
1 32790U 08021H   25169.43108914  .00002438  00000-0  19163-3 0  9995
2 32790  97.8219 139.2538 0012437 168.9232 191.2268 15.01785212930146
AIST-2 (RS-43)
1 39133U 13015D   25170.20689594  .00004204  00000-0  19601-3 0  9997
2 39133  64.8715 359.3052 0031298 278.9980  80.7606 15.20896827669045
NANOSATC-BR1
1 40024U 14033Q   25169.50157440  .00009198  00000-0  44865-3 0  9997
2 40024  98.0906 168.0464 0005037  26.7758 333.3733 15.18551609598562
QB50P1
1 40025U 14033R   25169.74996102  .00006411  00000-0  39158-3 0  9994
2 40025  98.0834 152.8520 0011244  33.5117 326.6820 15.10622017598026
QB50P2
1 40032U 14033Y   25169.66491112  .00005875  00000-0  38128-3 0  9993
2 40032  98.0439 141.5650 0007898 341.2374  18.8560 15.08458841597746
PERSEUS-M2
1 40037U 14033AD  25170.14930892  .00001230  00000-0  12155-3 0  9999
2 40037  97.9559 109.8242 0013702  65.4443 294.8202 14.93765678597054
PERSEUS-M1
1 40039U 14033AF  25170.06863231  .00001293  00000-0  12749-3 0  9992
2 40039  97.9298 104.6657 0013462  64.5940 295.6671 14.93752560596902
POLYITAN-1
1 40042U 14033AJ  25169.72355975  .00011232  00000-0  54203-3 0  9993
2 40042  98.1030 160.6855 0008802 339.1980  20.8893 15.18838334598179
TIGRISAT
1 40043U 14033AK  25170.18303291  .00002276  00000-0  28022-3 0  9998
2 40043  97.7366 325.1552 0051408 182.9893 177.1022 14.82995586592083
UKUBE-1
1 40074U 14037F   25169.40582039  .00005592  00000-0  39288-3 0  9998
2 40074  98.3935 132.4839 0001214  29.1958 330.9334 15.05581477593674
DEORBITSAIL
1 40719U 15032E   25170.02283778  .00006310  00000-0  55314-3 0  9995
2 40719  97.6422  29.3969 0011185   7.3913 352.7471 14.96951679536796
HORYU-IV
1 41340U 16012D   25170.08796821  .00019403  00000-0  51108-3 0  9993
2 41340  30.9971  67.9778 0005764 163.0072 197.0767 15.37264580514253
D-SAT
1 42794U 17036AF  25170.17927177  .00005893  00000-0  32858-3 0  9993
2 42794  97.5148 147.8990 0092306 335.9776  23.7160 15.10338661435971
CORVUS-BC2
1 42846U 17042X   25169.43136989  .00003337  00000-0  25194-3 0  9994
2 42846  97.3730 341.5913 0013425 274.6525  85.3168 15.02983431432362
CORVUS-BC1
1 42847U 17042Y   25169.88032251  .00002683  00000-0  20214-3 0  9992
2 42847  97.3794 342.5616 0011206 244.9950 115.0113 15.03248346432452
APRIZESAT-5 
1 37792U 11044E   25170.21857124  .00000952  00000-0  13025-3 0  9993
2 37792  98.2315  88.7427 0054692  90.8803 269.8675 14.79978399745227
APRIZESAT-6
1 37793U 11044F   25170.20222803  .00000605  00000-0  94330-4 0  9997
2 37793  98.2602  68.1001 0044052 164.8108 355.8306 14.76093544743734
APRIZESAT-7
1 39416U 13066A   25169.78893589  .00001185  00000-0  12677-3 0  9990
2 39416  97.7214 124.7717 0036238 338.0809  21.8857 14.90154628627081
APRIZESAT-8
1 39425U 13066K   25169.72503827  .00001139  00000-0  13235-3 0  9997
2 39425  97.7766 118.6535 0048112  43.0003 317.4957 14.86484516625659
BUGSAT-1 (TITA)
1 40014U 14033E   25169.88162372  .00003512  00000-0  21276-3 0  9992
2 40014  98.0733 236.9753 0030279 339.7998  20.2029 15.10947186600895
SAUDISAT-4
1 40016U 14033G   25169.71780907  .00000729  00000-0  10439-3 0  9992
2 40016  97.7085 324.7643 0045650 174.5753 185.5963 14.78753013592349
TABLETSAT-AURORA
1 40017U 14033H   25170.18602505  .00004783  00000-0  28556-3 0  9996
2 40017  98.0723 218.4625 0013310  20.2813 339.8942 15.11577019600275
APRIZESAT-9
1 40018U 14033J   25169.86054444  .00000509  00000-0  83640-4 0  9991
2 40018  97.8555 308.2730 0065641 288.8928  70.5171 14.73484734590172
APRIZESAT-10
1 40019U 14033K   25170.12497421  .00000393  00000-0  70369-4 0  9994
2 40019  97.9186 301.4067 0079486 354.2939   5.7353 14.70242899589074
AISAT
1 40054U 14034B   25170.10729148  .00006047  00000-0  48978-3 0  9998
2 40054  98.2930  53.1004 0010255 351.1588   8.9452 15.00097915592622
COSMOS-2407 [+]
1 28380U 04028A   25169.77941884  .00000055  00000-0  40470-4 0  9995
2 28380  82.9606 343.9502 0039050 186.8356 184.1844 13.76292168 49899
COSMOS-2414 [+]
1 28521U 05002A   25169.68671500  .00000097  00000-0  68138-4 0  9997
2 28521  82.9499 318.5665 0038757 286.5056  73.1850 13.87877020 33392
COSMOS-2463 [+]
1 36519U 10017A   25170.20083133  .00000045  00000-0  33144-4 0  9996
2 36519  82.9598 156.4237 0037465  58.5639 312.2181 13.71631047758265
NOAA-15
1 25338U 98030A   25170.13714410  .00000206  00000-0  10225-3 0  9998
2 25338  98.5342 195.0380 0009646 338.1545  21.9223 14.26984906409768
NOAA-18
1 28654U 05018A   25170.17743777  .00000094  00000-0  73265-4 0  9997
2 28654  98.8423 249.5458 0015359 102.0538 258.2356 14.13613436 35102
NOAA-19
1 33591U 09005A   25170.18544680  .00000171  00000-0  11525-3 0  9992
2 33591  98.9969 234.9437 0013234 341.0937  18.9742 14.13378989843464
SARAL
1 39086U 13009A   25169.89891992  .00000100  00000-0  53010-4 0  9991
2 39086  98.5534 356.1193 0000737 300.9823  59.1289 14.32685275643585
LAPAN-A3
1 41603U 16040E   25170.18073536  .00003173  00000-0  11192-3 0  9994
2 41603  97.1367 174.4114 0009493 228.4911 131.5516 15.29920504499251
BIROS
1 41604U 16040F   25169.63297471  .00025580  00000-0  28627-3 0  9996
2 41604  97.0861 198.5484 0007078 130.0365 230.1516 15.62673278500917
METOP-A
1 29499U 06044A   25169.87400421  .00002489  00000-0  29895-3 0  9995
2 29499  98.3308 260.8934 0179991 145.9896 324.8980 14.74061330974740
METEOR M1
1 35865U 09049A   25169.85824627  .00000082  00000-0  55841-4 0  9991
2 35865  98.6859 131.0846 0001161 295.8563  64.2495 14.23025652817718
METOP-B
1 38771U 12049A   25170.18132242  .00000100  00000-0  65264-4 0  9998
2 38771  98.5763 224.1284 0000867  53.2535 306.8722 14.21465726661686
METEOR M2
1 40069U 14037A   25170.12414858  .00000104  00000-0  66762-4 0  9998
2 40069  98.4679 154.6829 0006193  23.3053 336.8405 14.21301892567743
CSSWE
1 38761U 12048D   25169.55186169  .00011874  00000-0  40258-3 0  9997
2 38761  64.6630 225.8208 0113607 272.6343  86.1785 15.24864577 60622
MCUBED-2
1 39469U 13072H   25169.71438641  .00009505  00000-0  47394-3 0  9990
2 39469 120.4964  40.7825 0172497 346.0797  13.5556 15.06383334 62842
IPEX
1 39471U 13072K   25170.05260204  .00004055  00000-0  24864-3 0  9992
2 39471 120.4729   7.2046 0185296 336.9670  22.3174 14.99730330 60605
FOX-1A (AO-85)
1 40967U 15058D   25169.87392810  .00004087  00000-0  36466-3 0  9993
2 40967  64.7768 325.6625 0159769 192.4875 167.2259 14.88094008 59455
OOREOS
1 37224U 10062C   25169.75365673  .00001790  00000-0  18458-3 0  9998
2 37224  71.9697 182.1622 0013625  31.8643 328.3348 14.91502328 62412
STARS (KUKAI)
1 33498U 09002G   25169.77549874  .00002750  00000-0  27778-3 0  9990
2 33498  98.1243  99.2133 0007574 293.3705  66.6716 14.91911906884648
YUBELEINY-2 (RS-40)
1 38735U 12041C   25169.83951291  .00000035  00000-0  17930-3 0  9996
2 38735  82.4764 301.2460 0018328 138.6451 221.6020 12.42632785584713
AIST-1
1 39492U 13078C   25170.20272473  .00001458  00000-0  13220-3 0  9997
2 39492  82.4164 262.0809 0018479  56.6200 303.6785 14.94538844623338
VELOX-1
1 40057U 14034E   25170.16053259  .00003940  00000-0  38262-3 0  9994
2 40057  98.2929  50.2036 0009112  35.5746 324.6078 14.93225552592347
DX1
1 40071U 14037C   25170.17405333  .00001592  00000-0  17921-3 0  9998
2 40071  98.3448 106.4733 0007986  22.9179 337.2391 14.88194507592162
COSMOS-2491 (RS-46) [i]
1 39497U 13076E   25170.15241329  .00000006  00000-0 -29843-4 0  9998
2 39497  82.4862  34.6788 0013117 158.7843 201.3783 12.43489429520893
COSMOS-2499 (RS-47) [i]
1 39765U 14028E   25170.16646965  .00000037  00000-0  91316-4 0  9997
2 39765  82.4487 137.4043 0232364 133.6692 228.3932 12.82892509518691
TRANSIT 5B-5
1 00965U 64083D   25169.65728163  .00000057  00000-0  67749-4 0  9991
2 00965  90.0584 200.3837 0039328 260.5827 217.3757 13.56968198994309
EUTELSAT 1-F4 (ECS 4)
1 18351U 87078B   25169.45234406 -.00000002  00000-0  00000-0 0  9992
2 18351  14.0878 344.6762 0009849  44.9654 265.0590  0.98688190123161
BISONSAT
1 40968U 15058E   25169.66447490  .00005427  00000-0  44486-3 0  9996
2 40968  64.7770 313.9540 0149481 191.5665 168.2002 14.91929035 62353
DTUSAT-2
1 40030U 14033W   25170.17583027  .00005435  00000-0  35368-3 0  9991
2 40030  98.0557 142.4588 0010221  37.8614 322.3330 15.08380364598354
ELEKTRO-L2
1 41105U 15074A   25169.42949513 -.00000107  00000-0  00000-0 0  9997
2 41105   5.7744  75.0215 0000960 204.9660 127.0669  1.00272003 34858
DOVE-3
1 39429U 13066P   25170.13238998  .00002920  00000-0  40750-3 0  9993
2 39429  97.7110  43.2160 0120686 119.5929 241.7370 14.73460345617701
FORTE
1 24920U 97047A   25169.58101392  .00000195  00000-0  10214-3 0  9992
2 24920  69.9529 115.1547 0019940  49.3563 310.9289 14.27717298446785
DMSP 5D-2 F15/USA-147
1 25991U 99067A   25169.92357039  .00000145  00000-0  94613-4 0  9995
2 25991  99.0377 198.0837 0009101 320.9907 165.8254 14.17382998319185
CASSIOPE-1
1 39265U 13055A   25169.83843436  .00020742 -60043-6  32400-3 0  9998
2 39265  80.9408 138.4403 0390395 182.8424 177.0586 14.98149735612786
D-STAR ONE PHOENIX
1 43188U 18014J   25169.69891261  .00003531  00000-0  20977-3 0  9993
2 43188  97.5628  72.6360 0009500 179.4262 180.6981 15.11911399403754
S-NET D
1 43186U 18014G   25169.69855916  .00003570  00000-0  21210-3 0  9992
2 43186  97.5615  72.5121 0008807 182.6214 177.4972 15.11906819403759
TEN-KOH
1 43677U 18084G   25169.46445339  .00001816  00000-0  14888-3 0  9997
2 43677  98.0865 342.0725 0005997 222.1795 137.8967 15.00613713361576
